hospital Name,latitude,longitude,address
Sardar Patel Cantonment General Hospital,18.5027163,73.87712,"40, Solapur Baza Road"
Dr. Babasaheb Ambedkar Cantonment General Hospital,18.569025,73.8486994,"Bus Stop, Elphinston Road, Kasamali Jumbo Marg, Khadki"
Jeevan Deep Medicare Centre,18.5433023,73.7838607,"A-35-36,Niranjan Complex,Sus Roadashan"
Sahyadri Hospital,18.5074625,73.8057842,"Plot No.9B, Neena Society, S.No.1484.A/B, Paud Road, Opposite Vanaz Engineering"
"Krishna Hospital, Pune",18.5092055,73.8128199,"2, Anjanwel, Prashant Society, Paud Road"
Madhukar General Hospital,18.4789234,73.8241232,"Mahalaxmi Society , Hingane, Khurd Vitthalwadi Sinhagad Road"
Shewale Hospital,18.5626652,73.8325327,"Chikhalwadi, Bopodi, Pune"
Surya Sahyadri Hospital,18.521259,73.8556767,Near Shaniwar Wada
Fatima Convent Sahyadri Clinic,18.5045156,73.9008129,"Fatima Convent Compound, Near Vishal Mega Mart, Fatima Nagar"
Gupte Hospital Of Accurate Diagnostics Pvt Ltd,18.519051,73.8398724,"904, Bhandarkar Road , Deccan Gymkhana"
"Naik Hospital, Pune",18.5102879,73.8594694,"781/782, Shukrawar Peth, Opposite Jain Mandir"
Satyanand Hospital,18.4707709,73.8886878,"50/7, Plot 1,Opposite Konark Pooram,Kondhwa (K)"
Bora Hospital,18.511463,73.8625468,"# 589, Ganesh Peth, Dhor Lane, Opposite Pravin Masalewale"
Giri Raj Hospital and Intensive Care Unit,18.1461841,74.5772973,"Indapur Road, Near S. T. Stand, Baramati"
Bhagyajaya Hospital - Baramati,18.1463322,74.5830157,"Indapur Road, Opposite Market Yard"
Sub District Hospital Bhor,18.1439124,73.8520056,Bhor
Walunj Hospital,18.8250552,74.375742,"Revenue Colony, Shirur"
"Sub District Hospital, Indapur",18.1206808,75.0258983,"Padasthal Road, Indapur"
Raut Hospital,18.1209854,75.0248402,"Kalthan Road,Near M.S.E.B. Board"
Golwilkar Metropolis Heath Service (India) Pvt Ltd,18.5181296,73.8344155,"Flat No - 2, Abhyudaya Apartment-771, Bhandarkar Road"
"Spandan Hospital, Pune",18.6141649,73.765762,"S.No 19/3,Plot No A/1,Dange Chowk,Thergaon,P"
Pawar Surgical Hospital,18.5012035,73.9379293,"Laxmi Angan, Shatanand Complex, Hadapsar"
ONP Leela Hospital,18.5329215,73.8468085,near Hotel Pride
Meera Hospital,18.5022882,73.8746894,"710 B 4, Opp. Dhobi Ghat, Bhawani Peth, Pune"
Durvankur Hospital,18.7545031,73.857138,"S R No.11/12, Nanekar Wadi,Talegaon Road,Chakan"
Nityanand Rehabilitation and Residential Mental Heal,18.4565508,73.8515434,"Behind Bharti, Vidyapeeth,Inside Patang Plaza, Opp Sachi-Aai Mata Mandir,Katraj"
Yashda Hospital,18.5168084,73.859535,"420, Moti Chowk Ravivar Peth , 420, Moti Chowk Ravivar Peth"
Mohite Eye Hospital,18.5006535,73.936556,"106, Ramanand Complex, Near Gadital, Sofapur Road, Hadapsar"
Baravkar Hospital,18.4802234,74.3736099,"Kedgaon Station, Taluka Daund"
Joglekar Hospital,18.5327524,73.8336359,"1066-A, Gokhale Road, Shivajinagar"
"Rakshak Hospital, Pune",18.5628712,73.9377429,"52/1/1, Shreeram Nagar Society, Chandan Nagar Kharadi Pune Nagar Highway"
Parmar Multi Speciality Hospital and Maternity Home,18.5600564,73.8072065,"Plot No.13, Sr No 157, Behind Hotel Polka Dots, Parihar Chowk, Aundh"
Chaitanya Centre For Psychological Help,18.4795175,73.8043727,"Popular Prestige Commercial Complex, Srv No 141/142, Next To Fly Over Warje"
Mothercare Hospital,18.4872463,73.8760145,"585/34, Salisbury Park Mantri Apts- Ii Near Jain Mandir"
Onkar Hospital,18.6468218,74.0607716,"Koregaon Bhima, Tal-Shirur"
"Sahyadri Hospital, Bibvewadi",18.4781739,73.862105,"Plot No.13, S.No.573,City No.281, Next To Suhaag Mangal Karyalay, Swami Vivekanand Marg, Bibvewadi"
Bhalerao ENT Hospital & Laser Centre,18.6495394,73.7777303,"Ganaraj Complex No-2/3/4, Iind Floor Akurdi-Pradhikaran"
Siddhi Health Care Center,18.5857676,73.818174,Sadguru Kashid Nagar Opp Swimming Tank Near Kate Chowk Pimple Gurav
Argade Infertility and Endoscopic Surgery and Icu Center,18.5017523,73.8102353,"1st Floor, Kothrud Telephone Exchange Building, Kothrude"
Argade Hospital and Maternity Home,18.764168,73.8615735,"Ambethan Chowk, Pune-Nashik Highway, Chakan"
"Jijamata Hospital, Pune",18.6961373,74.1388334,Pune Nagar Road Pune Nagar Road Shikrapur
Shree Balaji Eye Hospital,18.4910283,73.8581684,"114, Adinath Shopping Complex 1st Floor, Poona Satara Road"
Chaitanya Stem Cell Center,18.5000189,73.8503981,"Rahi Sakha Apt., S.No.133, Pune - Sinhagad Road, Parvati"
Shree Shakti Hospital,18.5887256,73.8014048,"59/3, Near Katc Wosti, Next To Planet Hiueniem Societi, Pimple, Saudagar"
Saiseva Hospital,18.7614023,73.8627034,"1st Floor, Kazi Complex, Mahatma Phule Chowk,Old Pune - Nashik Highway, Chakan"
"Welfare Medical Foundatios, Mohintara Hospital",18.503468,73.9292309,84 Placino Behind Vaibhav Theatre Hadapsar Behind Vaibhav Theatre Hadapsar
Junnarkar Hospital,19.2069891,73.8798521,"Old Stand, 10/1 Mangalwar Peth, Junnar"
Yashodeep Hospital,18.1205606,75.0251131,"Kalthan Road, Indapur"
Dr. Mokashi Hospital,19.2078496,73.8785599,"Mangalwar Peth, Junnar"
"Pawar Hospital, Pune",18.4658771,73.8601231,"Sr.No.22, Plot No.49,Balajinagar, Behind Ellora Palace, Dhankawadi"
Atole Accident Hospital,18.1461092,74.5862822,"Avdhoot Plaza,Near Ajinkya Market,Bhigwan Road,Baramati"
Galaxy Care Laparoscopy Institute Pvt. Ltd.,18.5110031,73.837105,"25-A, Karve Road, Campus Of Ayurved Ras-Shala Near Garware College"
Punarvasu Chikitsalaya,18.5284781,73.8423179,"1123 B, Shanti-Prasad, Shivaji Nagar, Near Hotel Lalit Mahal, Model Colony"
Ushakiran General Hospital,18.5019965,73.9348286,"Sr No 229/A 1, Kamdhenu Estate, Hadapsar"
"Sangam Hospital, Pune",18.4757105,73.8578707,"34, Samgam Nagar, Bibvewadi"
"Zenith Hospital, Pune",18.5025879,73.9294803,"15/2A/2A, Opp Vaibhav Theatre, Pune Solapur Road,Hadapsar"
Umarji Hospital,18.5119352,73.857758,351 Shukrawar Peth
Amrut Hospital,18.6098278,73.8017106,"Near Nav Maharashtra School, Pimpri Waghere"
Latkar Hospital,18.5609006,73.8132226,"Niyoshi Park-Ii, Sanghvi Nagar, Opposite Dass Showroom, D.P. Road, Aundh"
Lunkad Hospital,18.5840808,73.833248,"33 A, Mumbai-Pune Road, Dapodi"
Shashwat Hospital,18.4948349,73.8135271,"Palavi Prime, 22, Happy Colony, Kothrud"
Medipoint Hospital,18.5623861,73.933849,"Plot No:38, Survey No.49/2, Off Pune Nagar Road, Shivraj Chowk, Near Bhaji Market, Chandan Nagar, Kharadi"
Indira Maternity Home,18.5122188,73.8762961,"2009, Gaffar baig Street, Opposite Charbawadi Police Station, Camp"
"Bhoir Hospital, Pune",18.6142278,73.7647042,"Bhoir Palace,Dange Chowk,Thergoan Chinchwad"
"Mayur Hospital, Pune",18.6661878,73.7959667,"18/68, M.Phule Nagar, Chikhali Road, Chinchwad"
Alatkar Hospital,18.5018572,73.9322779,"# 163/A,Bhosale Garden, Iii Pmc Stop, ,Hadapsar"
Pimpri Chinchwad (Pcip) Institute Of Paediatrics,18.6185477,73.803735,"Backau Wolf Gate, Station Road, Pimpri"
Rode Hospital,18.6186748,73.8699487,"Sai Park,Sr.No-84, Dighi Bhosari Road,Dighi P"
Anmol Jeevan Hospital,18.6953408,74.1389354,At Post Shikrapur Taluka Shirur
Ranka Hospital,18.4950117,73.861886,157/5 Opp Cpwd Office Mukund Nagar
Mohan General Hospital - Daund,18.4807017,74.3702444,"Kedgaon Station, Tal. Daund"
Niramaya Hospital,18.6394848,73.7967941,"Survey No.4742, Behind Jai Hind Petrol Pump, Next to Chinchwad (E) Post Office, Chinchwad"
Diwan Hospital,18.6579111,73.7762953,"1st Floor, Behind Nigdi Bus Stop,B. G. Corner"
Bhide Hospital,18.5048666,73.8443399,"18, Laxmi Park, Shastri Road, Navi Peth"
Poona Laser Center,18.5123701,73.8381752,"33/15B, Regent Chambers Opp Garware College Gate Karve Road"
Siddhant Maternity Home,18.4792694,73.8566422,"Kamala Heritage, Above Hotel Basuri, Satara Road, Pune"
Remedy Hospital,18.5005568,73.9365077,"228, Ramanand Complex,Poona Sholapur, Road, Near Jenaseva Bank"
Shivarkar Hospital,18.3511753,74.0255946,"Near Ganpati Nagar, Hudco Road Saswad"
Amit Hospital,18.5463494,73.8880362,"1289, Seiko Apartment, Next To Gunjan Theater, Yerawada"
"Kaushal Hospital, Pune",18.6186926,73.7992403,"Plot No 105, Near Kalewadi Bridge, Pimpri"
Jaykar Accident Fracture Hospital,18.4556692,74.5807663,"Near Daund College, Sawarkar Nagar, Daund"
"Purandare Hospital, Pune",18.5022916,73.8586646,"972, Shukruwar Peth"
Pramodini Urology Foundation,18.5199125,73.8410217,"9/7/20 A, Fergnsson College Road,Opp Hotel Vaishali,Next To Obc Bank"
Harsh Hospital,18.4802908,73.8662057,"Todkar Garden( 3Road Floor), Above South Indian Bank, New Bibwewadi- Kondhwa Road, Bibwewadi"
Kamat Hospital- Lonavla,18.749245,73.4050474,"97,D,Lonavla"
Shraddha Hospital,18.5019482,73.9315805,"1st Floor L P Classic, Hadapsar, Pune"
Chandrika Hospital,18.3576453,74.6267755,"Plot No. 142 At Post Rawangaon, Tal. Daund"
Vighnaharta Multispeciality Hospital,18.818278,74.3715996,"No. 1149, Bafana Mala,Pune - Nagar By Pass Road,A/P Shirur"
Salunke Hospital,18.5585931,73.9273694,"Old Mundhva Road, Near Sundarabai Marathe School, Ganeshnagar, Wadgaon Sheri"
Anuchandra Accident Hospital,18.1437324,74.5763446,"Geetai Building, Ring Road, Behind S.T. Stand, Baramati"
Moolanis Eye Care Centre,18.5057737,73.8783494,"103, Pundol Aprtments (Opp Pantaloom) M G Road"
Gokhale Hospital,18.502172,73.857062,"996, Shukrawar Peth, Tilak Road, 996"
"Aditya Hospital, Pune",18.826674,74.3755333,"#1515, Pune - Nagar Road,Opposite Indira Gandhi Statue"
"Sushrut Hospital, Chinchwad",18.6283685,73.8129256,"Near Mumbai Pune Road, Chinchwad Station"
Dhamdhere Hospital,18.6701214,74.1014448,"Sanaswadi, Pune Nagar Road Tal Shirur"
Shree Hospital and Maternity Home - Baramati,18.1635193,74.583993,"Alp-Suryanagar Midc,Opp Hotel27 Inn Near Suman Residency"
Wankhede Hospital,18.4724656,73.8888207,"S.No. 50,Opp Konark Puram,23, Kure Plaza,Kondhwa Khurd"
Pune Fertility Center,18.5287757,73.8479868,"1162/3, Crescent Exclusee, Shivaji Nagar"
Jagtap Hospital,18.4774187,73.8237825,"Star Diagnostics Centre, Anandnagar,Sinhagad Road, Near Santosh Hall"
Attharva Accident Hospital,18.7317589,73.6640784,"Plot No 17 Ekveera Society,Next To Petrol Pump,Chakan Mumbai Highway,Talegaon Dabhade"
Joshi Hospital,18.5171772,73.8332118,"No. 778, Shivajinagar, Opposite Kamla Nehru Park"
"Lifeline Hospital, Pune",18.5875463,73.8625391,Hutatma Chawk Near Sbi Bank Bhosari
Harde Hospital and Maternity Home,18.826192,74.378401,"Khara - Malla, Adinath Nagar, Pune Nagar Road, Near Suraj Hotel, Shirur"
Dr Patwardhan Hospital,18.4573434,73.8507776,Main Road Dhankwadi
Sainath Orthopaedic Hospital,18.6182834,73.8028754,"Nagdeo Tower,Pune - Nashik Road,Bhosari"
Shri Samarth Hospital,18.5180616,73.865867,"227, Rasta Peth, Omkar Apt"
Mai Mangeshkar Hospital,18.4851843,73.7997318,"117/1, Mumbai Bangalore Highway Next To Baif Waraje Next To Baif Waraje"
Kamal Netra Rugnalaya,18.4949914,73.81219,"106,Dahanukar Colony 3Road Lane Kothrud"
Ashwini Hospital and Endoscopy Centre,18.6676197,73.7942453,"Plot No.118, Sector- 20, Krishna Nagar, Chinchwad"
Shraddha Hospital,18.5133532,73.6774479,"Sahadu Nana Complex, Ghotawade Phata, Mulshi, Kasar Amboli, Pirangut"
Kulkarni Hospital and Diagnostic Centre,18.4851967,73.8092832,"Sr. No. 125/B, Near Water Purification Plant, Warje"
Khares Eye Institute,18.5145168,73.8317379,Swojas Royal 116-B Erandawane It Lane
Narwade Hospital,18.753244,74.2406267,"Ranjan Ganpati, Karnjawar Raod,Shirur"
Bhakti Hospital,18.6713182,74.1036053,"Sansawadi Chowk (Ispat Road) , Tal - Shirur"
Dr. Konde Hospital,18.8281322,74.3702866,"Opposite Market Yard, Pune- Nagar Road, Shirur"
Dr Chavans Fracture and Orthopaedic Center,18.4785979,73.8238536,"1st Floor, Opp Chamanlal Complex, Opp Santosh Hall Singhad Road"
"Suraj Hospital, Hadaspur",18.5052573,73.9541258,"Mahadevnagar Manjari Road, Hadaspur"
Gultekdi Nursing and Maternity Home,18.4926804,73.8685472,"Next To Giridhar Bhavan Mangal Karyalya, 473- 31- B, Gultekdi"
Dr Marathe Hospital,18.488791,74.0683892,"At Post Kunjirwadi Tal. Haveli District Pune, Km No. 20, Kunjirwadi"
Agarwal Maternity and General Hospital,18.5588804,73.931217,"45/1+2+5,Sangarsh Chowk Kharodi Road, Chandanagar"
Ashakiran Hospital,18.5158253,73.8474959,"555, Narayan Peth, N C Kelkar Road"
Sant Dnyaneswar Medical Education Research Centre,18.5137805,73.8476971,"No. 695, Sadashiva Peth, ,Opposite Vijay Cinema,Laxmi Road"
Kohakade Hospital,18.5628578,73.9320606,"Plot No 21, Sr.No 49/2, Near Rupee Co Op Bank,In Front Of Maruti Mandir & Chandan Nagar Bus Stop, Pune-Nagar Road"
"Shrikrishna Hospital, Pune",18.6683744,74.1473193,"A / P Talegaon Dhamdhere Tal, Shirur"
Dongre Hospital,19.0451469,73.8370715,"Bhimashankar Road, Ghodegaon, Tal-Ambegaon"
Dr. Karve Childrens Hospital,18.5252254,73.8499763,"1233, Shivaji Nagar, J.M. Road"
Yashashree Maternity and Nursing Home,18.4886651,73.8502412,"83/1, Sarang Society, Sahakar Nagar"
New Life Children Hospital,18.6146396,73.7856428,"Opposite M.M.School, Above Shagun Plywood, Main Road, Kalewadi"
Vinayak Netralaya - Pune,18.5105851,73.817981,"Vinayak, 128/1B, Paud Road"
Lonkar Hospital,18.4557812,74.5802996,"Near New Collage Bldg, Daund Pune"
Seva Hospital,18.5748353,73.8277468,"Priyadarshani Nagar,Near S.T.Colony,Old Sanghvi"
Mams Sumatibhai Shah Ayurved Mahavidyalayas,18.5035837,73.9387286,Hadapsar
Sainath Hospital,18.6545135,73.8484494,"Sector No 4, Moshi Pradhikaran, Pune-Nasik Highway"
"Surya Multispeciality Hospital - Chakan, Pune",18.7484989,73.8602592,"Success Point, Pune - Nashik Highway, Mutkewadi, Opposite Shah Petrol Pump, Chakan"
Nimbalkar Hospital,18.1522721,74.574336,"Patas Road, Opposite Government Hospital, Baramati"
Sanjivani Medical Foundation,18.7466054,73.4078,G Ward Market Road Lonavala
Abane Hospital,18.4994516,73.9377093,"Parmar Complex, Ground Floor, Behind Lokseva Hanuman Mandir, Gadital, Hadapsar"
Dr Kedare Hospital,18.7542475,73.8590646,"Nanekarwadi, Chakan"
Rahel Hospital,18.5152906,73.8754553,"903, Sachapir Street, Next To Covent Camp"
Dr Sonawane Hospital,18.6472922,74.0590444,"At Post Koregoan Bhima, Vadu Budnik Road, Talshirun"
Nachiket Hospital Pvt Ltd,18.5076864,73.831062,"No. 68 / 4, Karve Road"
"Shivam Hospital, Pune",18.4904171,74.000239,"Near Manali Resort, Pune-Solapur Highway, Tarawadi, Post-Phursungi"
Dr. Kardile Accident and General Hospital,18.112179,75.0256002,"Ijgude Building, Vyankatesh Nagar, Kalthan Chowk, Akluj Road, Indapur"
Omkar Accident Hospital,18.7522357,73.8592125,"Nanekarwadi Talegaon Chowk, Taluka Khed,Pune Nashik Road,Chakan"
Sai Shree Orthopaedic Super Speciality and Joint Replacement Centre,18.5601581,73.8052712,"251/252, Opp Bsnl Tel Exchange, Near Parihar Chowk, Aundh, Near Dav School"
Disha Netralaya - Pune,18.6647203,73.7849696,"21/459-A, Durganagar Chowk, Near Kanheya Sweet And Dinesh Super Market, Yamunanagar, Nigdi"
Shahade Hospital,18.4978682,73.8537562,"494/13, Mitra Mandal Colony Pazvati Pazvati"
Shree Ganesh Hospital,18.4323177,74.4598704,At Post Patas (Bazar Tal) Taluka Daund
Dada Laser Eye Institute,18.5109382,73.8799037,"Office No. 202, 2nd Floor, A Wing, Gulmohor Apartments, Above State Bank Of India, East Street, Camp."
Suryakant General Surgical Accident and Maternity,19.1194152,73.9748251,Shankarrao Market Near Khaire Petrol Pump Narayangaon Tal Junnar
Thorat Accident and Maternity Hospital,18.3079752,74.751226,"Pune Solapur Highway, Opp Grampanchayat Office, Bhigwan Indapur"
Dr.Prakash Katariya Laser Cure,18.5223591,73.8441311,Ganga Nagar
"Siddharth Hospital, Pune",18.4900578,73.8684641,"E-10-11,Gulatekdi , Market Yard,Behind State Bank"
Anjali Hospital,18.6200124,73.8010407,"568, Dr. Ambedkar Chowk, Opp Deluxe Cinema, Pimpri"
Dr.Purohit Nursing Home,18.490344,73.8443121,"86-87,Parvati, 668,Bibvewadi,Manmohan Park"
"Pooja Hospital, Pune",18.5891781,73.8190953,"Survey No. 43/1/1, Anand Park Dapopi Road, Pimple Gurav"
Sahyadri Hospital Hadapsar,18.5031602,73.9321491,"G & S Tower, Survey No.153/A, Hissa No.1 To 4/21, Magarpatta, Pune-Solapur Road, Hadapsar"
Siddhi Hospital and Laproscopy Centre Pvt Ltd,18.464116,73.859008,"Dhankawde Patil Township,Balaji Nagar, Behind Balajinagar Petrol Pump,Dhankawadi"
Nande Hospital,18.5011902,73.9383772,"Shatanand Complex, First Floor, Near P.M.T. Depo, Gadital"
PBMA's H V Desai Eye Hospital,18.4722952,73.9237216,"S.No-93, Tarawade Vasti, Mohammadwadi Road, Hadapsar, Off Nibm Road, Corinitam Club"
"Phoenix Hospital, Pune",18.6047183,73.7761981,"Kalewadi Phata, Opp Rhythm Society, Thergaon"
Suraj Hospital,18.4814034,73.8724713,"B/4 1st Floor Bibiwadi - Kondhwa Road , Pune"
Patil Hospital General and Eye Hospital,18.6525408,73.7780609,"Main Road, Vitthalwadi, Akurdi"
Moraya Hospital,18.5821441,73.8283718,"Gauri Appartment, Dapodi, Pimple Gurave Road, Dapodi"
Mulay Hospital and Maternity Home,18.8251251,74.3775011,"H.No.2, Ram Ali, Shirur (Gondnadi), Shirur (Gondnadi)"
Sathe Hospital,18.4658326,74.5844597,"Dr.Ambedkar Chowk, Daund"
Desai Hospital,18.6337676,73.8493024,"Sec. No.1, Plot. No.7/8"
"Adhar Hospital, Pune",18.9826352,74.0836188,"At Post Pargaon(Shingve), Taluka Amgegaon"
Matruchhaya Hospital,18.8263872,74.3731733,Revenue Colony
Dr. Phapale Hospital,19.2618326,73.9831915,"Near P.D.C.C. Bank, Jijamata Complex Otur Tal. Junnar"
"Shri Sai Hospital, Pune",18.6723003,73.8920917,"Pune Alandi Road, Dehu Phata, Alandi"
"Mohintara Hospital, Hadapsar",18.5008462,73.9305311,"84, Palacino Appartments, Behind Vaibhav Theatre, Pune-Solapur Road, Hadapsar, Pune-411028"
Khandelwal Hospital and C. C. Centre,18.7448439,73.4060861,"#16, Pradhan Park,Near Police Station"
Pratap Memorial Hospital,18.7334507,73.6797895,"No. 1, Tulja Bhavani Society,Chakan Road,Talegaon Dabhade"
Chinchanikar Hospital,18.4785438,73.8235485,"Plot No 7, Mahalaxmi Residency, Opposite Santosh Hall, Narveer Tanaji Malusare Road , Hingne Khurd"
"Parth Hospital, Pune",18.4805668,74.3722493,"Ap Post Kedgaon Station, Tal Daund"
"Chaitanya Hospital, Bhaghirathi Nagar",18.4778296,73.7977711,"Bhaghirathi Nagar, Warje Malwadi"
Dr Sarawat Memorial Hospital,18.4705427,73.8878018,"Mitha Nagar, Lane 2, Near Western Bakery, Kondhwa Khurd"
Matoshri Hospital,18.7375516,73.6391607,"Near Mumbai Pune Highway, Taluka Mawal, Vadgaon"
Bobade Accident Hospital,18.1453426,74.5823119,Indapur Road
"Anand Hospital, Bhosari",18.621807,73.8514093,"Opposite Pmt Bus Stop, Pune-Nashik Road, Bhosari"
Chintamani Hospital,18.3514712,74.0271818,"At Post Saswasd, Hudco Road, Opp Rashtrawadi Bahvan, Purandar"
Pawna Hospital,18.7029494,73.6854187,"Somatane Phata, Near Pune Mumbai Express Highway, Parandwadi Road,Talegaon Dabhade Taluka Mawal"
Vinod Memorial Multispeciality Hospital,18.5732119,73.8774723,"A-23, Geeta Colony, Kasturba Soceity, Visharant Wadi, Behind Jakat Naka"
Rama Madhav Hospital,18.145811,74.5836282,"Opposite Market Yard,Indapur Road"
Dhanashree Hospital,18.6591036,73.7978435,"Gp-66, G Block Midc Opp K Bajaj High School, Chinchwad"
Medlife Multispeciality Hospital and Icu,18.6191718,73.7912714,"Near Jyotibha Temple,Alphonsa School Road,Vijay Nagar,Kalewadi"
Om Hospital,18.5292449,73.830716,"Anjali Apartments, Vetalbaba Chowk,Shivaji Nagar"
Bagade Hospital For Women and Maternity Home,18.5964845,73.8300374,"No. 3 & 4/7B, Agrasen Nagar,Opposite Atlas Copco Co. Dapodi"
Bharatiya Sanskriti Darshan Trust,18.5819248,74.0024284,"Vishwa Shanti Dham, Wagholi Tal-Haveli"
Ruby Ailcare Superspeciality Cardiac Care Centre,18.6214797,73.8208455,"1st, Floor Yeshwantrao Chavan Memorial Hospital, Sant Tukaram Nagar, Pimpari"
Matoshree Madanbai Dhariwal Hospital,18.8256779,74.3746613,"2223, Revenue Colony Shirur,Ghodnadi"
Pune Adventist Hospital;advantist hospital,18.491944,73.8710202,Box 1405 Salisbury Park Marketyard Post
Mahajan Hospital,18.4840672,73.857003,"49/2B, Maharashtra Hsg Soc, Pune - Satara Road, Opposite Big Bazar"
Om Prasuti Graha,18.5470843,73.8885243,"7/1-2, Jail Road"
Parmar Hospital,18.7470772,73.4085202,"Akshay Medical Foundation Parmar Hospital G 204, Main Road Lonavla"
"Shreenath Hospital, Pune",18.5211129,73.906766,"Citadel Enclave, Bt Kawde Road, Ghorpadi"
Subodh Hospital,18.5035234,73.8137605,"138, Shiayi Statue Chowk, DP Road Kothrud, Pune"
"Pai Hospital, Pune",18.4689649,73.8572026,"No. 15/7, Bhuleshwar Society, Near Sankar Maharaj Math, Poona Satara Road, Dhanakawadi"
Chinmay Institute Of Paediatrics,18.5083289,73.8457009,"210/B, Navi Peth"
Patil Hospital - Pune,18.4797674,73.8251685,"S No. 28, Swaroop Building, Hingane Khurd, Opposite Nilay Complex, Sinhgad Road"
Paras Polyclinic and General Hospital,18.6436414,73.7710556,"S.No.60/1/1A, Gurudwar Road, Bijalinagar, Chinchwad"
Shree.J.Hospital,18.4653028,73.864194,"OppositeChintaminagar,Bibvetwadi"
Bansal Hospital,18.6786782,73.7327309,"Opp Bank Of India Dehu Road , Off Bombay-Pune Highway"
Pataskar Hospital,18.6460596,73.8499998,"Jay Ganesh Samrajya, C-Wing Opp Panjarpol Pune -Nashik Road, Bhosari"
Darekar Hospital,18.6413795,74.0502669,"Perne Phata, Pune-Nagar Road, Tal. Haveli"
Paranjpe Eye Clinic and Eye Surgery Centre,18.5183547,73.8404001,"894, Venkatesh Apparrment, Off F. C. Road ,Deccan Gymkhana"
Ushakiran Eye Hospital,18.6133992,73.7664382,"Dange Empire, First Floor, Dange, Behind Main Bus Stop, Thergaon"
Aai Maternity Hospital and Nursing Home,18.6175138,73.8492092,"Reg. No-55/Chj/2007, 8, Bhagyoday Nagar, Ambad Road"
K. K. Hospital - Pune,18.5626283,73.938176,"Sn 52 / 1 / 6, Shriram Nagar Society, Mundhwa By Pass Chowk, Pune Nagar Highway, Chandannagar"
Ace Hospital,18.504933,73.8303593,"32 / 2 A, Erandwane, Gulawani Maharaj Ro,Near Mehendale Garage & Abhishek Hotel"
Dhulabapu Kokare Memorial Hospital,18.1543697,74.5851074,"A/P Ring Road, Ashok Nagar Colony, Baramati"
Jeewan Jyot Multispeciality Medical Care Center,18.5569451,73.9074788,"A - 1/II Floor, Hi Line Park Road, Ramwadi Naka, Nagar Road"
Devganga Hospital,19.0008578,73.9449419,"Vighnahar Market, Pune-Nasik Highway,Opposite To S T Stand,Manchar"
Pooja Hospital,18.5023551,73.9288205,"Kanchanjunga Arcade, Off Pune, Solapur Road, Hadapsur"
Dr. Mainkar Hospital,18.3424837,74.0294194,Main Road Saswad
Dr Manohar Dole General Hospital,19.1201324,73.9728577,At Post Narayangaon Tal - Junnar
Chandra Hospital,18.4522084,73.890656,"Chandra Heights,S.No-54,Kondhwa-Katraj Road,Khadi Machine Chowk"
Dalvi Hospital,18.3457705,74.0291901,"Dalvi Shopping Centre, Main Road, Saswad, Tal, Purandhar"
Vaibhavi Hospital,18.4994249,73.9469039,"Raghukul Plaza, First Floor, Opposite Akashwani Tower Hadapsar"
Burande Hospital,18.1479647,73.8437174,"499, Nagora Ali. Bhor"
"Ankur Hospital, Shivaji Nagar",18.6062334,73.7729748,"Near Ashwini Hospital, Shivaji Nagar"
Saidham Hospital,18.6195467,73.8433908,"Near Bank Of Maharashtra, Landewadi, Bhosari"
Bhosale Hospital,19.1175684,73.9759295,"1st Floor, Shubham Prestige, Khodad Road, Near Post Office, Narayangaon, Tal. Junnar"
Global Hospital & Research Institute,18.5013237,73.8410144,"577/2, Near Dattawadi Police Chowky, , Off. Sinhagad Road"
"Lokmanya Hospital, Pune",18.5089079,73.834105,"13/4, Karve Road, Behind Ranka Jwellers"
Sai Sneh Hospital and Diagnostic Centre Pvt Ltd,18.4465478,73.8597831,"Near Pmt Bus Depot, Pune Satara Road, Opposite Octroi Office, Katraj"
Bhagawati Netralaya,18.7552529,73.8611611,"Bhagwati Hospital ,Manik Chawk, Chakan, Tal. Khed"
Dr Khade Hospital,18.7538351,73.8603021,"Infront Of Hotel Savera, Talegaon Chowk, Chakan, Tal Khed"
Niramay Medical Foundation and Research Centre Pvt. Ltd.,18.1560658,74.5852254,"Ashoknagar Bhigwan Road, Baramati."
"Kabre Orthopedic, Spine and Dental Centre",18.6490413,73.8076058,"Plot No: Sei 4/1, D Ii Block, Chinchwad, Telco Road, Near Wonder Car Show Room, Near Ksb Pumps, Midc, Chinchwad"
"Chavan hospital, Pune",18.6332402,73.8167819,"54, Stadium Road, Vastu Udyog - Ajmera Corner, Pimpri"
Padam.Dr.D.Y.Patil Hospital and Research Centre,18.6240215,73.8212612,Pimpri
Lohade Hospital,18.6405777,73.7945558,"Telco Road, Chinchwad Station"
"Lodha Hospital, Pune",18.4833651,73.8004071,"Pol Hights, Near Popular Nagar, Warje"
"Anand Hospital, Chakan",18.7613744,73.8622025,"Balaji Towers, Mahatma Phule Chowk, Chakan"
"Adarsh Hospital, Pune",18.4541274,73.8881166,"S No 11/2, Kondhwa Budruk, Near Kaveri Apartment Kondhwa Katraj Road"
Bhandare Maternity and Accident Hospital,18.1433883,74.5749593,"Indapur Chowk, Opposite S.T. Stand"
Shraddha Hospital,18.7456936,73.4131403,"225 A Ward, Near ICICI Bank, Bhangarwadi, Lonavala Ho"
Shripal Hospital,18.1481253,74.5729362,"Near Ram Mandir, , Baramati, Baramati"
Shriniwas Hospital,18.6672779,73.7846866,"Plot No. L.C. 5A,Sector 21, Yamuna Nagar,Near Shivbhoomi School, Nigdi"
Sushrut Hospital,18.8512377,73.8869727,"Pune Nashik Road, Near Police Station, Tal-Khed"
Phadatare Hospital,19.1825396,74.0994197,"Nagar - Kalyan Road, Alephata"
Dr. Gaikar Hospital,19.2609018,73.9847672,"Near Airtel Tower, Otur Taluka Junnar"
Thorat Hospital,18.4775294,74.3738063,"At Post Kedgaon, Tal. Daund"
Dhanwantari Hospital,18.5194471,73.8658999,"339-C, Near Kem Hospital,Rasta Peth"
Pungliya Hospital,18.5226796,73.8508487,"No. 562 / 1, Jada Bhuvan, Shivaji Nagaar, Opp Bal Gandharv Bridge;Survey No 1187/13, Chiroda Niwas, Ghole Road, Next to NIO, Pune"
B.J.Medical College and Sassoon Hospital,18.526235,73.871161,Near Pune Railway Station
Varma Ortho - Surgical Centre,18.6570509,73.769787,"Plot (Sdc) 8, Sector -25 Pradhikaran, Nigdi"
Karne Hospital Pvt Ltd,18.4954696,73.8583709,Krishna Chambers Laxmi Narayan Theatre Satara Road
Vibhute Hospital,18.5040492,73.8518391,"No. 2149, Above Axis Bank,Vijayanagar Colony,Opposite Kaveri Hotel,Sadashiv Peth"
Divekar Hospital,18.4477424,74.4104882,"Patas, Daund"
Mankikar Hospital For Children and Lab,18.6186189,73.8495646,"D.M. Chamber, Poona Nshik Highway, Bhosari"
Maval Hospital,18.741703,73.6338449,"Mumbai-Pune Road, Vadgaon, Maval"
Unique Childrens Hospital,18.6388704,73.7943419,"Hira-Moti Fortune, Mumbai-Pune Road, Opposite Chinchwad Police Station, Chinchwad"
Dr Ghatkar Hospital,18.7528198,73.8634624,"Shubham Complex, Shikrapur Road, Chakan, Tal: Khed"
Yash Hospital - V.K. Medical Foundation,18.5103392,73.9380687,"Survey No 168, 10-11, DP Rd, Malwadi"
"Surya Hospital, Shikrapur",18.6977634,74.141289,Bandal Complex Pune Nagar Road Shikrapur Shikrapur
"Chetana Hospital, Pune",18.6596112,73.7970825,"Gp - 116, Vrundavan Soc. Area, Near Rotary Club, Midc, G. Block, Chinchwad"
Kulkarni Endo Surgery Institute and Reconstructive Urology Centre,18.5097841,73.8029893,"3, Rajpat Society Opp: Vanazengg Paud Road"
Om Shree Swami Samarth Hospital,18.6345339,73.7791827,"Opp Chaitanya Sabhagruha, 60, Pawanangar, Chinchwad"
Vinnayak Hospital,18.4854879,73.8717458,"Office No.1, 2, 3, Vastushree Complex, Hxde Park, OppositeSite Market Yard Bus Depot"
Dr Makan Surgical Maternity and Accident Hospital,18.5756743,73.8196734,Ganganagar Sangavi
Naigaonkar Hospital,18.152585,74.5747541,"Bhigwan Chowk, Opposite Cosmos Bank, Patas Road"
Mangal Moorti Hospital,18.7551564,73.8587887,"Opp Hotel Savera, Shivaji Chowk Chakan"
Dr. Wetal Hospital,19.2644456,73.9824291,"At Post Otur, Tal. Junnar"
"Global Multi Speciality Hospital, Pune",18.6026821,73.7772542,"Sai Plaza, Rahatani Phata , Kalewadi Road, Kalewadi Road"
Shah Hospital,18.5486475,73.8893055,"Netha Park, Yerwada, Opp Gunjan Theatre, Near Airport"
Navjeewan Hospital,18.4984609,73.9543189,"Bhosale Garden, Hadapsar-28"
Prathmesh Hospital,18.5518547,73.9368054,"Sr No- 8, Yashwant Nagar Chowk, Hadapsar Bye Pass Road, OppositeBalaji Palace, Chandan Nagar"
Devkate Hospital,18.1456377,74.5825338,Indapur Road
Pune City Eye Hospital,18.5298629,73.8760869,"Bharat Arcade Qff No-3/2394-A ,Genthimayya Road,Opp Polgate Police Station"
Talesara Hospital,18.5498719,73.8887711,"Plot No.6, S N. No.6/A/1, C.S.T No.1307,Behind Sai - Baba Mandir,Air-Port Road , Yeswada"
Borse Nursing Home,18.5093803,73.7901476,"Paud Road, Bhusari Colony"
"Shree Krupa Hospital, Pune",18.6243518,73.7864814,"Gurunanak Plaza, Shop No-11,Near Hanuman Mandir, Kasarwadi"
"Saraswati Hospital, Pune",18.7474753,73.406235,"E-1,Gaothan,Near Shivaji Statue, Lonavala"
Khanaware Hospital,18.3034603,74.7536105,"Main Road, Bhigwan Tal Indapur"
Prathamesh Hospital,18.5735081,73.8239434,"Laxminagar, Shinde Nagar, Mulanagar, Old Sangvi, Pimpri-Chinchwad"
Magar Accident and Eye Hospital.,18.1209749,75.0242172,"Kalthan Road, Infront Of At & T Tower, Indapur"
Deodhar Eye Hospital,18.5114494,73.836472,"39/25, Erandwane Behind Kaka Halwai Karve Road"
"Om Hospital, Bavdhan",18.5164841,73.7818475,"Shop no.1, OM hospital building Prashan, NDA Pashan Road"
"Sushrut Hospital, Indapur",18.1150122,75.0269477,"Behind Datta Mandir, Indapur - Akluj Road, Aip-Indapur"
Godbole Hospital,18.5112078,73.8513154,"1301 , Bharat Natya Mandir Road"
Sanjeevani Hospital,18.4626294,73.7748331,"Uttam Nagar,Near National Defence Academy (Nda)"
Om General Hospital and Maternity Home,18.4762765,74.3785505,"At. Post Boripardhi, Tal. Daund"
Kataria Hospital,18.545411,73.8855249,Nagar Road Yerawada
"Ashwini Hospital, Pune",18.6436421,73.7732088,"20/156 'Dattahasta' Near Rly. Lines, Bijalinagar, Chinchwad"
Sevadham Hopital,18.7327978,73.6712413,"Talegaon Dabhade (Stn.), Taluka Maval"
Dr.Pawar Eye Hospital,18.5092716,73.8449264,"272, Parth Complex, Navi Peth"
National Institute Of Ophthalmology,18.5596864,73.8148253,"1187/30 Off Ghole Road, Near Mahatma Phule Museum, Shivaji Nagar"
Nm Wadia Institute Of Cardiology,18.5307444,73.8771894,32 Sassoon Road Pune Station
"Gaikwad Hospital, Pune",18.45672,74.581017,Savarkar Nagar Near Daund College Near Daund College
Bhakti Hospital,18.5851041,73.819735,"Sant Abhang Colony, Near Poona Marble, Pimple Gurav"
"Pritam Hospital, Pune",18.617531,73.8500802,"APTE Colony, Nashik Highway, Bhosari"
"Gade Hospital, Pune",18.9984308,73.9458619,"At Post Manchar, Taluka Ambegaon"
Sane Guruji Arogya Kendra,18.503632,73.9381224,"Near Samidha Gas Agency, Malwadi, Hadapsar"
Badade Hospital,18.6573737,73.7682514,"Telang Heights, LIG Colony, Pradhikaran, Nigdi, Pimpri-Chinchwad"
Bhandari Maternity and Nursing Home,18.4777164,73.8234164,"4, Narveer Tanaji Malusare Rd, Anand Nagar"
"Samarth Hospital, Pune",18.5195234,73.862059,"1486, Kasba Peth , Next To Daruwala Pool"
Amai Charitable Trust Institute Of Urology,18.5550536,73.8162401,"S. No. 32/2A, Erandwana, Behind Mehendale Garage, Near Hotel Abhishek, Gulwani Maharaj Strret"
Z Y - Vision,18.5247371,73.8408494,"101, Trikaya House Deendayal Hospital Lane F C Road"
"Shreeyash Hospital, Pune",18.5155666,73.8418673,759 / 53 Deccan Gymkhana
Dr. Todkar Hospital,18.5229518,73.8639473,"8/1, Mangalwar Peth, 137 Mangalwar Peth, 573, Nana Peth"
Khenat Hospital and Maternity Home,18.4891281,73.8138248,"Sai Housing Society,Karve Nagar"
Manoj Clinic / Gore Hospital,18.5117788,73.8487867,"1148,Sadashiv Peth,Opposite Perugate"
"Om Hospital, Pune",18.6167297,73.8737755,"No:201/5 Hutajma Chowk, Alandi Road Bhosari"
Pharande Eye Hospital,18.4777316,73.8239729,"Shop No. 1, Anant Apartment, Near Santosh Hall, Hingnekhord, Sinhgad Road"
Vishwaniranjan Eye Hospital,18.5113846,73.8458276,"Chhatrapati Sambhaji Maharaj Rd, Pantancha Gate, Sadashiv Peth"
Yogeshwari Hospital and I C U,18.4605338,74.5823917,Shalimar Chowk
Dhanvantary Hospital,18.5728934,73.8249265,"Pawna Nagar, Old Sangvi, Pimpri-Chinchwad"
Shree Nursing and Maternity Home,18.4845772,73.8159759,"Chandralekha Complex, A/P Nira Tal. Purandhar"
Nisargopchar Gramsudhar Trust,18.4928788,74.13087,Uruli Kanchan
Burute Hospital,18.6188706,73.8497047,Near Rupee Co-Bank
"Ram Krishna Hospital, Pune",18.5092455,73.8483354,"1536, Laxmi Chambers, Sadashiv Peth, Tilak Road"
Shatayu Hospital,18.4664871,73.857691,30/3/8 Satara Road
"Vinayak Hospital, Warje",18.4858542,73.7968263,"# 103/104, Rahul Enclave,Off Atul Nagar, Near Cipla Foundation,Mumbai-Bangalore Highway, Warje."
Sanjeevan Maternity and Surgical Hospital,18.5593966,73.8025528,"S.No. 251/3/11 & 252/1/2,OppositeAundh, Telephone Exchange,D.P.Road,Aundh"
Serene Hospital Pvt Ltd,18.5697941,73.8818973,"S No.242, Cst No. 7261 Sainik Nagar, Near Pratik Nagar"
Rural Hospital,18.7330277,73.6759593,"8, Yashwant Nagar Approach Rd, Tapodham Colony, Yashwant Nagar, Talegaon Dabhade"
The Bombay Mothers and Children Welfare Society,18.8563651,73.8820079,Rajgurunagar
Polaris Health Care,18.5994905,73.7636078,"Wakad -Dange Chowk Road ,Near Datta Mandir , Wakad"
Deshpande Hospital,18.5049909,73.9022358,"Parekh B Towers, Biaroba Nala, Fatimanagar"
Wafgaonkar Hospital,18.8560269,73.8815707,"No. 1606, Wafgaonkar Apartment,Wada Road,Rajgurunagar"
Pyramid Multispeciality Hospital ( Kulkarni Medical Foundation ),18.4593838,74.5812289,"Sahakarnagar, Kurkumbha Road, Daund"
Ameya Netralaya (Eye Hospital),18.6598933,73.7774138,"2nd Floor, Santbhoomi Coop Society"
"Chaitanya Hospital, Poona",18.6456161,74.0625782,"Poona Nagar Road, Main Road, Koregaon Bhima, Tal Shirur, Poona"
Leela Gulab Hospital,18.3345236,74.3769184,At Post Supe Baramati
Centre For Laproscopy Surgery,18.5207937,73.8452496,"1206/4,OppositeSambhaji Park,K.P Kulkarni Road"
Bhosale Hospital,18.8920708,74.0816595,"At Post Loni, (Near Dhamni Vilage), Taluka Ambegaon"
Kawedia Hospital,18.5070645,73.8782608,"2144,New Modikhana, Opposite Poolgate Police Chowky, Camp"
Chaitanya Hospital,18.6293451,73.7809946,"Near Chinchawadgaon Police Chowky,Chaphekar Chowk,Chinchawad"
Ashirwad Hospital,18.5934583,73.7387454,"Mittal Bhavan,G Ward"
Yashdeep Eye Hospital,18.151591,74.5731287,"Irrigation Colony Chimanshah Baug Road Malegoan, Irrigation colony"
Prem Clinic and Hospital,18.6335515,73.8057742,"14, Sukhwani Lawns Morawadi Pimpri"
Om Shakti Chaya Hospital - Rsby,18.4685007,73.920515,"At Post Yawat, Pune Solapu Highway"
Ambekar Hospital,18.5054055,73.817541,"Plot No 86, Opposite Jog School, Bank Of Maharashtra, Mayur Colony, Kothrud"
Core Hospital,18.756893,73.8593043,"2nd Floor, Kohinoor Centre, Pune Nasik Highway, Talegaon Chowk, Chakan"
Kamaladevi Maternity Hospital & Research Home,18.467118,73.8190001,"Next To Ganesh Society, Near Kashikar Company, Kalyan Road"
Langhe Hospital,18.8293266,74.1361526,A/P Kanhur Mesai
Dr. Gujarathi Hospital,18.99908,73.943802,"Pune - Nashik Hwy, Malwadi, Manchar,Tal Ambegaon"
Harijivan Hospital,18.5001435,73.8542376,"Saras Baug Road,Aannabhau Sathe Chowk"
Nityaseva Eye Hsopital and Eye Bank,18.575223,73.8173626,"Vaishnavi Palace,Shitolenagar,Old Sangavi,P"
Dugad Hospital Pvt Ltd,18.4909481,73.8580129,"Adinath Shopping Centre, 1st Floor, Pune Satra Road"
Agrawal Hospital,18.4891931,73.8140419,"sai colony, karvenagar main chowk"
Inaam General Hospital,18.5618595,73.892592,"191, Jail Rd, Yerawada"
Aditya Eye Hospital & Lasik Centre,18.560232,73.8953506,"Near Ishanya Mall, Maharashtra Housing Board , Yerwada"
Sahyadri Super Speciality Hospital,18.5543086,73.8971383,"Near Hermes Heritage, Nagar Rd, Yerawada"
Rutu Anand Hospital,18.56295,73.8942307,"191, Nagpur Chawl, Above Sanjay Medicals Near To Saibaba Mandir Nagpur Chawl, Yerwada"
Freedom Fighter Gangaram Karne Hospital,18.5565024,73.8972835,"Shastrinagar, Yerawada"
Chatrapati Shivray Hospital PMC Pune,18.5623853,73.8965795,"11, Maharashtra Co-Operative Housing Society, Yerawada"
Shree Hospital,18.5533588,73.8989792,"Nagar Rd, Opp Agakhan Palace, Shastrinagar, Yerawada"
Neney's Hospital,18.5536181,73.899622,"Flat 9, Uttam Tower, Shastrinagar, Yerawada"
"Rural Hospital, Narayangaon",19.121284,73.972737,Narayangaon
Government Hospital Dimbhe,19.0837227,73.7451693,"Bhimashankar-Manchar Road, Dimbhe Kh"
Rural Hospital Junnar,19.202773,73.877824,Junnar
PMC ARMED FORCE MEDICAL COLLEGE(AFMC),18.503916,73.890117,"Pune Cantonment, Pune"
Bharati Vidyapeeth Dental College and Hospital,18.457239,73.855026,"Pune - Satara Road, Katraj - Dhankawadi"
Arvind Ganpat Bartakke Dawakhana Atulnagar,18.48356,73.792632,"Phase I, Atul Nagar, Warje, Pune"
Murlidhar Pandurang Laigude Hospital,18.4623918,73.804957,"Vadgaon Khurd, Nanded Fata, Pandurang Industrial Area, Dhayari, Pune"
"Rural Hospital, Saswad",18.3471592,74.0307032,"Saswad - Sonori Road, Trishul Housing Society, Saswad"
"Government Hospital, Lasurne",18.088994,74.7585812,"Indapur Road, Near Shri Nilkantheshwar Temple, Lasurne"
"Government Hospital, Kurkumbh",18.3925773,74.5391703,Pandharewadi
Late Anandibai Narhar Gadgil Hospital,18.5024088,73.8386813,"Near Mahatre Bridge, Dattawadi, Pune"
"Rural Hospital, Rui",18.18129,74.611755,"Vidya Nagari, Baramati"
PCMC-Yashwantrao Chavan Memorial Hospital,18.6218172,73.8211251,"YCM Hospital Road, Sant Tukaram Nagar, Near Dr. DY Patil Public School, Pune"
Takawe Rural hospital,18.8053663,73.6047018,"Near zp school, Gaothan, Tal Maval"
"Rural Hospital, Chandoli",18.845824,73.878716,"Rajgurunagar, Chandoli"
Sutika Seva Mandir,18.513913,73.846551,"Laxmi Road, Narayan Peth, Pune, Maharashtra"
PCMC-Akurdi Hospital,18.649885,73.781999,"Akrudi Main Road, Beside Cambridge International School, Akrudi"
"Rural Hospital, Alandi",18.675174,73.89796,Alandi
PMC Sangamnerkar Hospital (N. G. O.),18.561134,73.921412,"Vadgaonsheri, Next To Inorbit Mall, Nagar Road, Somnath Nagar, Pune"
Chris Rock Edward Paul Hospital,18.5770661,73.8990724,"MLS Colony, Dhanori, Pune"
Rural Hospital Kale Colony,18.6837237,73.5101049,"kothurne Road, Kale Colony, Tal Maval"
"PCMC-Talera Hospital, Chinchwad",18.626544,73.784354,"Tanaji Nagar, Near MITCON E-School, Chinchwad Gaon"
Sasoon Hospital,18.521872,73.873118,"Jay Prakash Narayan Road, Railway Station, Pune"
PCMC-Bhosari Hospital,18.620365,73.847955,"Philips Road, Near Police Chowki, Bhosari"
"FPA , Kothrud",18.506552,73.7886402,"Bhusari Colony, Kothrud, Pune"
Colony Nursing Home,18.5030769,73.8446917,"50/51, LB Shastri Road, Near Dandekar Bridge, Navi Peth, Laxmi Park, Sadashiv Peth, Pune"
Vaibhav Hospital,18.5490315,73.8887874,"Opp. Neeta park, Janta Nagar, Yerwada Village, Yerawada, Pune"
Akshara Maternity Hospital,18.4857137,73.9545579,"Shivshati Chowk, Park Insilia Road, Bhekrai Nagar,Wadki, Fursungi, Pune"
Sathe Hospital,18.6040867,73.9153855,"Dhanori Jakat Naka, Kutwal Colony, Lohegaon, Pune"
Gupte Hospital Extension Clinic,18.557773,73.793639,"Shiv Shakti Complex, 2nd Floor, Baner Road, Pune"
Shree Ganesh Hospital,18.509568,73.69005,Pirangut
Hinjawadi Hospital,18.5950742,73.7350569,"Muktangan Complex, In Front AXIS Bank, Marunji Road, Hinjawadi, Mulshi, Pune"
Gauri Hospital,18.624263,73.85793,"Shastri Chowk, Bhosari Alandi Road, Sambhaji Nagar, Bhosari Pimpri-Chinchwad, Pune"
Mahesh Smruti Multispeciality Hospital,18.4968106,73.9615264,"Solapur - Pune Highway, Manjri Bk, Pune"
Lotus Hospital,18.515216,73.964247,"Takale Nagar, Pune"
Dhanwantari Hospital,18.5593096,73.7895512,"Dhanwantari Building, Baner Road, Pune"
Bora Hospital,18.5828476,73.8122787,"Kawade Nagar, Kranthi Chowk, New Sanghavi, Pimpri-Chinchwad"
Shivam Hospital,18.500617,73.9364994,"1st Floor, Ramanand Complex, Hadapsar, Pune"
ESIC Hospital,18.6445126,73.7958922,"Plot No 9/10/11, Block D-3, Mohan Nagar, Chinchwad-Bhosari Road, Pune"
Saijyoti Hospital & ICU,18.6138321,73.7632889,"Arun Plaza, Dange Chowk, Yashoda Colony, Thergaon, Pimpri-Chinchwad, Pune"
Kamal Hospital,18.494483,73.902522,"Vikas Nagar, Wanwadi, Pune"
Manas Hospital,18.449772,73.837835,"Ambegaon BK, Pune"
Prime Multispeciality Hospital,18.5535131,73.7537866,"Bus Stop, Shakuntal Chembers, Near Sus, Pune"
Goodwill Icon Hospital,18.5537182,73.9395977,"4/1, Gold Road, Pandhari Nagar, Rakshak Nagar, Kharadi, Pune"
Shreenath Hospital,18.4323612,73.9789156,"Saswad Road, Trimurti Nagar, Wadki, Near Laxman Vajankata, Pune"
Orchid Hospital,18.6005779,73.9096039,"L-Square, Porwal Road, Dhanori Jakat Naka, Lohegaon, Pune"
Golden Care Hospital,18.6020756,73.7476511,"Bhumkar, Shedge Wasti Road, Wakad, Pimpri-Chinchwad"
Shree Sai Prasad Hospital,18.4495732,73.8484382,"43, Dattanagar, Sai Colony, Ambegaon BK, Pune"
Petals Hospital,18.5492968,73.8888427,"Ganga Complex, Near Gunjan Talkies,Yerawada, Pune"
Gangotri Hospital,18.6724303,73.8260381,"703, Barade Wadi, Chikhali, Pimpri-Chinchwad, Pune"
Dr. Agarwals Eye Hospital,18.5535506,73.80838,"No.127, Plot 7, Lotus Court, ITI Road, Aundh, Near Tanishq at, Pune"
Fursungi Old ZP Hospital,18.4719058,73.977854,Fursungi
Shwas Multispeciality Hospital,18.4468202,73.8373703,"Next to Sun Bright School, Tukaram Nagar, Ambegaon BK, Pune"
Mauli Hospital,18.6245425,73.8577616,"Above Medplus Medical Store, Shastri Chauk, Ramnagar, Bhosari, Pune"
Londhe Hospital,18.4768406,73.9257973,"Tarawade Vasti, Undri, Pune"
Snehbandh Multispeciality Hospital,18.5806656,73.8307214,"Plot No 24, Near Sambhaji Chowk, Sundar Baug Colony, Pimpri-Chinchwad, Pune"
N. M. Wadia Hospital,18.530716,73.876952,"Sasoon Road, Central Excise Colony, Sangamvadi, Pune"
Mahalunge Hospital,18.7554213,73.80879,"Bus Stop, Opp. Mahalunge, Talegaon-Chakan Road, Pune"
Shahu Hospital,18.4820937,73.8993556,"62/2, Kedari Nagar, Oxford Village, Kedari Nagar, Wanowrie, Pune"
Mayureshwar Multispeciality Hospital,18.4488442,73.832632,"Shree Swami Landmark, Narhe Road, Near Kalubai Mandir, Bhumkar Nagar, Pune"
Dr. Shraddha Angal,18.540958,73.829755,"Shop No. 108/7, Pride House, Pune University Road, Chattushringi, Shivajinagar, Pune"
Nanal Hospital,18.6248618,73.8026145,"Sonkar Chamber, Station Road, Pimpri, Opposite Hotel Gokul, Pune"
Ayushree Hospital,18.6130394,73.7141648,"Near Z P School, Marunji Village, Hinjawadi, Marunji, Pune"
Omkar Children Hospital,18.4890478,73.9498267,"Survey Number 1, Bhekrai Nagar, Tukai Darshan, Pune"
Giridhar Hospital,18.448229,73.83316,"Narhe Ambegaon Road, Bhumkar Nagar, Narhe, Pune"
Noble Hospital,18.5035846,73.9273481,"Magarpatta Road, North Hadapsar, Pune"
Global chemist,18.6143742,73.7657379,"Dhange Chowk Flyover, Onkar Colony, Mangal Nagar, Wakad, Pimpri-Chinchwad, Pune"
Vighnaharta Hospital,18.4849699,73.9553255,"Fursungi Bhekrai Road, Bhekrai Nagar, Phursungi, Pune"
PCIP Hospital,18.624903,73.803616,"2, Shatlejatat Dhandge Path, MIDC, Pimpri-Chinchwad, Pune"
New Command Hospital,18.4956457,73.884521,"Pune Cantonment, Pune"
Sushrusha Hospital,18.483917,73.939737,"Shop No.12, Sathyaraj City, Kale Borate Nagar, Hadapsar, Pune"
Aditya Hospital,18.586342,73.813735,"Suyog Colony, Pimple Gurav, Pimpri-Chinchwad"
Public Civil Hospital,18.473903,73.9761783,Fursungi
Serene Hospital,18.569842,73.8823303,"Sainik Nagar, Vishrantwadi, Yerawada, Pune"
Sakhalkar Hospital,18.747103,73.4084439,Oni
Sanjeevani Hospital,18.5914168,73.7395295,"Hinjewadi Road, Shivaji Chowk, Above IDBI Bank, Phase-I, Hinjawadi, Pune"
Chaitanya General Hospital,18.519983,73.9067768,"Ghoir Colony, Near Ram Krishna More Sabha Gruha, Pune"
Dharmadhikari Hospital,18.5015481,73.9357865,"Nitin Heights, Opp. Janaseva Bank, Pune - Solapur Road, Hadapsar, Pune"
Dinkar Hospital,18.4869268,73.9421209,"3816, Saswad Pune Road"
Pagare Hospital,18.5889738,73.8165592,"Gangardenagar, Pimple Gurav, Pune"
Shree Hospital,18.5515015,73.9411724,"7/3/B, Gulmohar Sociaty, Behind Radisson Blue Hotel, Kharadi, Pune"
Dr. Babasaheb Ambedkar Cantonment General Hospital,18.5687508,73.8486366,"Bus Stop, Elphinston Road, Kasamali Jumbo Marg, Khadki, Pune"
Tongaonkar Hospital,18.653062,73.781126,"Sr.No.815, Akurdi, Near JBGUS Sansta, Pimpri-Chinchwad, Pune"
Varad Hospital & Critical Care,18.6636382,73.735329,"Maalwale Nagar, No. 2, Adarsh Nagar Road, Kiwale, Ravet, Pimpri-Chinchwad, Pune"
Harpale Hospital,18.486701,73.9520187,"Saswad Pune Road, Bhekarai Nagar Phursungi, Pune"
Life Care Multispecality Hospital,18.4879916,73.9389363,"Kale Padal Road, Behind Dmart, Kaleborate Nagar, Sasane Nagar, Hadapsar, Pune"
Sadhana Hospital,18.488725,73.949843,"Sr No 207, Saswad Road, Survey Number 1, Bhekrai Nagar, Tukai Darshan, Pune"
Bhakare Super Speciality Hospital,18.448115,73.849133,"Jambulwadi Road, Datta Vihar, Dattanagar, Shani Nagar, Ambegaon BK, Pune"
Kasturba General Hospital,18.5725401,73.8815063,"Near Janata High School, Kasturba Housing Society, Visharant Wadi, Pune"
Shree Sai Hospital,18.5102804,73.689908,"Pirangt, Tal.Mulshi, Paud, Hirachandra Building, Pirangut, Pune"
Sudarshan Hospital,18.588825,73.817373,"49/1, Gangardenagar , Near Katepuram Chowk, Pimpri-Chinchwad, Pune"
Niga Hospital,18.4897147,73.9500252,"Hadapsar - Fursungi Road, Bhekrai Nagar, Tukai Darshan, Pune"
Vinayak Hospital,18.5684211,73.8797365,"Pratik Nagar, Phulenagar, Yerawada, Pune"
Shree Anand Memorial Hospital,18.6158378,73.7703502,"Dange Chowk Road, Vandev Nagar, Opposite Royal Court, Thergaon, Pimpri-Chinchwad"
Aadhar Hospital,18.4756744,73.931237,"Green City, Handewadi Road, Satav Nagar, Hadapsar, Pun"
Max Neuro Hospital,18.5984676,73.8285109,"Kundan Nagar, Agrasen Nagar Society, Seva Nagar, Kasarwadi, Pimpri-Chinchwad, Pune"
Mauli Lahan Mulanche Hospital,18.696125,74.139691,"Shikrapur, SH-27, Nagar Road, Pune"
Deogiri Hospital,18.479672,73.956002,"Near Maharashtra Vidhyut Dept Quarters, Bhekrai Nagar, Fursungi"
"Manipal Hospital, Pune",18.5409242,73.935679,"22, 2A, Mundhwa - Kharadi Road, Near Nyati Empire, Santipur, Thite Nagar, Kharadi, Pune"
Ayodhya Trust General Hospital,18.49253,73.9037686,"Vikas Nagar, Wanwadi, Pune"
Chordiya Nursing Home,18.4581135,73.8781846,"Arihant Society, Kondhwa, Pune"
Anup Hospital,18.498738,73.838315,"D-2 Rakshalekha Society, Dattawadi, Pune"
Apex Superspeciality Hospital,18.5075984,73.8439447,"Lal Bahadur Shastri Road, Asha Colony, Lokamanya Nagar, Sadashiv Peth, Pune"
Date Hospital,18.51024,73.8522294,"Nikhil Nikethan Apartments, Vandemataram Chowk, Near Bhikardas Maruti, Pune"
Morya General Hospital,18.5147901,73.8484343,"405, Munjabacha Bole Road, Narayan Peth, Pune"
Suman Hospital,18.492348,73.853457,"64, Shahu College Road, Anurag Society, Parvati Industrial Estate, Parvati Paytha, Pune"
Lifeline Hospital,18.4723283,73.8923643,"NIBM Road, Kausar Baugh, Kondhwa, Pune"
Sabane Hospital,18.5107027,73.8434338,"722/Ab/5, Chandrama, Laxmi Park Colony, United Western Bank Building, Pune"
Kamat Hospital,18.512445,73.869389,"Ratan Chambers, Shekh Madarasha Kadari Road, Bhawani Peth, Pune"
Bindu Madhav Thakarey Hospital,18.496127,73.817109,"Paschimanagri, Kothrud, Pune"
National Hospital,18.4714238,73.8887261,"Big-d Complex, Mauli Apartment, Opp Konark Puram Complex, Betal Nagar, Kondhwa, Pune"
Meenatai Thakre Maternity Home,18.47396,73.889134,"Bhagyoday Nagar, Shreehans Nagar, Kondhwa, Pune"
Bhagirathi Children's Hospital,18.4947224,73.8229041,"Plot No 23, Raghukul Society, Girija Shankar Vihar, Karve Nagar, Pune"
Vishranti Hospital,18.5086317,73.8744506,"804, Mahatma Phule Rasta, Agarwal Colony, Sadar Bazaar, Pune"
Matru Seva Hospital;Pacharne Hospital,18.516314,73.871996,"407/5(Old) 665 (New) Nana Peth, Opposite Christ Church, Near YMCA, Pune"
Shraddha Hospital,18.4909252,73.845933,"Tulshibagwale Colony Road, Lakhshmi Nagar, Sahakar Nagar, Parvati Paytha, Pune"
Purohit Hospital,18.4975587,73.8513176,"Shivaji Road, Near Maharashtra Bank, Parvati Gaon, Pune"
Prerna Hospital,18.4553105,73.8690108,"Sukhsagar Nagar, Near Amba Mandir, Pune"
Bapat Hospital,18.530365,73.842063,"1137/8, Lakaki Road, Rage Path, Model Colony, Shivajinagar, Pune"
Shivneri Hospital,18.449571,73.85723,"C-1 Building, 1st Floor, Manik Moti Complex, Morebaug Road, Katraj, Pune"
New Pune Hospital,18.470806,73.888399,"Gulmohar Apartment, Behind Satyanand Hospital, Shivneri Nagar, Kondhwa, Pune"
Kothari Orthopaedic Hospital,18.4891725,73.8571698,"Satara Road, Above Cosmos Bank, Adinath Society, Parvati Industrial Estate, Pune"
Kalyani Hospital,18.5046645,73.8592129,"735, Rashtra Bhushan Chowk, Guruwar Peth, Pune"
Kumbhare Hospital,18.5218011,73.8622355,"Nageshwar Mandir Road, Somwar Peth, Pune"
योगेश हॉस्पिटल,18.510438,73.847875,"1188, Limayewadi Road, Vishnu Bhuvan Society, Limayewadi, Sadashiv Peth, Pune"
Gokhale Hospital,18.502188,73.857108,"996, Shukrawar Peth, Tilak Road, Dadawadi, Swargate, Pune"
Sai Samarth Hospital,18.5231039,73.8681573,"Sai Niketan Building, Narpatgir Chowk, Station Road, Somwar Peth, Pune"
Dr. Baba Saheb Ambedkar Hospital;dr baba saheb ambedkar hospital,18.4962994,73.8702072,"Salisbury Park, Gultekdi, Pune"
Todkar Hospital,18.5107128,73.8660862,"Near Bank of Maharashtra, New Nana Peth, Bhawani Peth, Pune"
Shaishav Children's Hospital,18.5137927,73.8476204,"695/A, Laxmi Road, Opposite Vijay Talkies, Sadashiv Peth, Pune"
Suyash Hospital,18.5001862,73.8124022,"Plot No.1, Kothrud Bus Stand Road, Dattachhaya Tejas Society, Kothrud, Pune"
Moraya Nursing Home,18.4472895,73.8662836,"Survey No 29, Bhairavi Building, Katraj - Kondhwa Road, Silver Oak Society, Pune"
Swanand Maternity Hospital,18.5297435,73.8339823,"Opp: Apollo Medicals, Model Colony, Shivaji Nagar, Near Senapati Bapat Road, Pune"
City Hospital,18.5071504,73.7997343,"Motiram Complex, Paud Road, Opp. Kachara Depot, Shastri Nagar, Kothrud, Pune"
Parasnis Hospital,18.474694,73.858715,"Sitaram Aabaji Bibwe Path, Shree Sant Eknath Nagar, Bibwewadi, Pune"
Shintre Hospital,18.5122403,73.8499324,"1021/22, Sadashiv Peth Road, Nagnath Par, Sadashiv Peth, Pune"
Alliance Munot Hospital;munot hospital,18.5025447,73.8686993,"Swargate Chowk, Ekbote Colony, Dadawadi, Swargate, Pune"
Kalavati Mavale Hospital,18.5150421,73.8464127,"VG Kothari Path, Narayan Peth, Pune"
Jeevandhara Multispeciality Hospital,18.4491259,73.8577679,"Sr.No 84/2-D, First Floor, Bhagirathi Square, Morebaug Road, Katraj, Pune"
ASG Eye Hospital,18.528932,73.8436351,"Plot No. 557 / 1, 2 &3, Fergusson College Road, Bhamburda, Shivajinagar, Pune"
Rode Hospital,18.5091812,73.8149589,"Building No 10, Anand Nagar, Ground Floor, Late GA Kulkarni Path, Kothrud, Pune"
Mantri Hospital,18.505204,73.834167,"98, Erandawane Gauthan, Near Kamal Prabha Book Store, Pune"
Kering Hospital;kering clinic,18.5029885,73.8682087,"Timber Market Road, Ekbote Colony, Mahatma Phule Peth, Pune"
Siddhivinayak Hospital,18.4559009,73.8709944,"Lane no. 3, Near Mahesh Bank, Ambamatha Mandir, Sukhsagar Nagar, Pune"
Kirad Hospital,18.5143478,73.868913,"House No, 368, Jawaharlal Nehru Road, New Nana Peth, Ganesh Peth, Pune"
Chajed Hospital,18.50451,73.8628189,"297, Mominpura Road, Ghorpade Peth, Swargate, Pune"
KEM Hospital,18.5200596,73.8669776,"489, Sardar Mudaliar Road, Rasta Peth, Pune"
Hope Hospital,18.5126915,73.869516,"New Nana Peth, Ganesh Peth, Pune"
David Sassoon Hospital,18.525279,73.870499,"Agarkar Nagar, Pune"
MJM Hospital,18.5245059,73.8438216,"Janardhan Sadan, 1194/23, Ghole Road, Sud Nagar, Shivajinagar, Pune"
Chavan Hospital,18.502202,73.8584592,"Chhatrapati Shivaji Maharaj Road, Subhash Nagar, Shukrawar Peth, Pune"
Ordnance Factory Hospital,18.5607785,73.8444489,"Khadki, Pune"
Kute Hospital,19.2605931,73.9822568,Otur
"Military Hospital ,Pune",18.5526036,73.8381779,"Range Hills, Pune"
Morya Multispeciality Hospital,18.4643898,73.8153134,"Wadgaon Budruk, Narhe, Pune"
Baramati Hospital,18.1407754,74.5795266,"Sabhagruh, Baramati"
Mehta Hospital,18.1633034,74.5876947,"Sahyog Society, Baramati"
Apex Hospital,18.8464245,73.8919066,Rajgurunagar
"Shingote Multispeciality Hospital ,Prasutigruah",19.206163,73.8697163,"Bodake Nagar, Pune"
GetWell Multispeciality Hospital,18.9978336,73.9434479,"Malwadi, Manchar"
Indrayani Hospital,18.7422418,73.6803903,"Indrayani Nagar, Varale, Talegaon Dabhade"
Bhimashankar Hospital and Research Centre,19.0062215,73.9225629,"Wadgaon Kashimbeg, Manchar, Ambegaon"
Dr. Mate Hospital,19.1169247,73.9752576,"Behind Hotel Tukson, Junnar"
Shlok Hospital,18.3479815,73.8497289,Ramnagar
Om Chaitanya Hospital,19.1844257,74.0991408,Alephata
Matoshri Ramabai Ambedkar Prasutigriha,18.502785,73.8500051,"B Block, Municipal Colony, Pune"
Savitribai Phule Meternity Home,18.5048618,73.8611993,"Guruwar Peth, Pune"
Premchand Oswal Hospital,18.4677248,73.8683031,"Chintamani Nagar, Bibwewadi, Pune"
"Janata Hospital ,Pune",18.4993855,73.8470078,"Jai Bhawani Nagar, Parvati Paytha, Pune"
"Government Hospital, Dhankawadi",18.4652208,73.8495579,"Chandrabhaga Nagar, Dhankawadi, Pune"
Vasant More Hospital,18.4533972,73.8698521,"Sukhsagar Nagar, Katraj"
Brahm Chaitanya Hospital,18.6342441,73.7885624,"Chinchwad, Pune"
Hazrat Maulana Yunus Sahab Rahmatullah Alaih Dawakhana,18.4482157,73.856594,Katraj
G B Indumati Manilal Khanna Hospital,18.4925761,73.8665946,"Indira Nagar, Mukund Nagar, Pune"
"VishwaRaj Hospital ,Pune",18.4896852,74.0224054,Pune
"Langhe Hospital ,Shikrapur",18.6941035,74.1394302,"Pabal Phata, Shikrapur"
Varadvinayak Children and Eye Hospital,18.4934295,73.9315228,"Laxminarayan Park, Hadapsar, Pune"
Ojas Multispeciality Hospital,18.6432539,73.7546177,"Sector No. 32A, Shinde Vasti, Ravet, Pimpri-Chinchwad"
Rising Medicare Hospital,18.5537402,73.9393307,"Kharadi, Pune"
Om Hospital,18.6241345,73.8545347,"Bhosari, Pimpri-Chinchwad"
Late Pruthak Barate Hospital,18.4753187,73.7975854,"Warje, Pune"
Sanjeevan Hospital,18.6240914,73.8538715,"Hutatma Chowk, Ramnagar, Bhosari, Pimpri-Chinchwad"
Apollo Spectra Hospitals,18.5029796,73.8520221,"Vijayanagar Colony, Sadashiv Peth, Pune"
Shree Hospital,19.1803243,74.0924674,Alephata
Maulinath Multispeciality Hospital,18.6918512,74.1323398,"Laxmi Complex Chakan chwok, Shikrapur"
Siddhivinayak Hospital,18.256667,73.8871068,Malegaon
Life Line Hospital,18.6342365,73.8492487,"Indrayani Nagar, Tathawade, Bhosari, Pimpri-Chinchwad"
Mahalaxmi Hospital,18.4594754,74.5826814,"Shalimar Chowk, Daund"
Jeevanjyoti Hospital,18.6048925,73.7785403,Pune
Sparsh Hospital,18.7040018,73.6845571,"Tukaram Nagar, Talegaon Dabhade"
Unique Neonatal & Pediatric Intensive Care Unit Pvt Ltd,19.1819202,74.0967026,Alephata
"Government Hospital, Nirgudsar",18.9826859,74.0435734,Nirgudsar
Thite Multispeciality Hospital,18.5629303,73.9400147,"Shree Ram Society, Lohegaon, Pune"
Metropolis Healthcare Ltd,18.5078453,73.8265103,"Deccan Gymkhana, K.P. Kulkarni Marg, Shivajinagar"
Shree laxmi Hospital,18.5503243,73.9372721,"Thite Nagar, Kharadi"
Shashwat Hospital,18.4944973,73.8135873,"Palavi Prime, 22, Happy Colony, Kothrud"
Ingale Hospital,18.6145416,73.7855399,"Opposite M.M.School, Above Shagun Plywood, Main Road, Kalewadi"
Racemous Polyclinics,18.5208921,73.9329095,"5150, 5th floor, Marvel Fuego,Amanora Park Town,Hadapsar, Pune-411028"
aaaa, 18.531808,73.867005,"NULL"